{
"type": "FeatureCollection",
"name": "SA2",
"crs": { "type": "name", "properties": { "name": "urn:ogc:def:crs:EPSG::7844" } },
"features": [
{ "type": "Feature", "properties": { "SA2_CODE21": "120021675", "SA2_NAME21": "Leichhardt", "CHG_FLAG21": "1", "CHG_LBL21": "New", "SA3_CODE21": "12002", "SA3_NAME21": "Leichhardt", "SA4_CODE21": "120", "SA4_NAME21": "Sydney - Inner West", "GCC_CODE21": "1GSYD", "GCC_NAME21": "Greater Sydney", "STE_CODE21": "1", "STE_NAME21": "New South Wales", "AUS_CODE21": "AUS", "AUS_NAME21": "Australia", "AREASQKM21": 2.9838, "LOCI_URI21": "http://linked.data.gov.au/dataset/asgsed3/SA2/120021675" }, "geometry": { "type": "MultiPolygon", "coordinates": [ [ [ [ 151.145429097281777, -33.881216970988895 ], [ 151.146003717334224, -33.880210701035359 ], [ 151.147248627442167, -33.878073691136322 ], [ 151.149121767605607, -33.874850881288218 ], [ 151.149938497676857, -33.873445661354445 ], [ 151.150161437730532, -33.872806311370731 ], [ 151.150296707698487, -33.872901151384006 ], [ 151.150432737630581, -33.8732631513992 ], [ 151.150552207575004, -33.873550351412355 ], [ 151.150658857533983, -33.873742781423623 ], [ 151.150753067502194, -33.873879631433368 ], [ 151.150861027469318, -33.874009701444344 ], [ 151.151019367424652, -33.874174221460244 ], [ 151.151245707367735, -33.874357261482615 ], [ 151.151499047310239, -33.874515941507326 ], [ 151.151661037275943, -33.874599061523007 ], [ 151.151773857253147, -33.874648601533856 ], [ 151.151888577230721, -33.874693561544866 ], [ 151.152006287208593, -33.874733001556109 ], [ 151.152127067186655, -33.87476783156761 ], [ 151.152248617165441, -33.874796321579126 ], [ 151.152398267140313, -33.874824041593264 ], [ 151.152498607123874, -33.874839501602729 ], [ 151.15262481710397, -33.874853381614578 ], [ 151.152751917084657, -33.874861791626486 ], [ 151.152878747066069, -33.874864811638318 ], [ 151.153005297048281, -33.8748624216501 ], [ 151.153068987039745, -33.874858501656 ], [ 151.153388036997995, -33.874828941685514 ], [ 151.153770446948727, -33.874788261720859 ], [ 151.154097336905778, -33.874759841751114 ], [ 151.154217096891131, -33.874740931762148 ], [ 151.154313456876537, -33.874747151771167 ], [ 151.15464275683172, -33.874729931801724 ], [ 151.154757436814663, -33.874734741812446 ], [ 151.154886906794417, -33.874747611824603 ], [ 151.155015426773815, -33.874764101836689 ], [ 151.15515959674957, -33.874790991850304 ], [ 151.155266876731076, -33.874814451860473 ], [ 151.155514486687338, -33.874876691883976 ], [ 151.155610696670607, -33.874898631893096 ], [ 151.155887336623749, -33.874952811919258 ], [ 151.156055746596024, -33.874980161935127 ], [ 151.156514406521893, -33.875043501978325 ], [ 151.156771216480905, -33.875075152002466 ], [ 151.157154906421766, -33.875106682038435 ], [ 151.15737773638844, -33.875117242059297 ], [ 151.157411026383329, -33.875119852062411 ], [ 151.157488116358792, -33.875220992070297 ], [ 151.158017696286834, -33.875192352119441 ], [ 151.158047406286471, -33.875163252122007 ], [ 151.15824727625639, -33.875174262140703 ], [ 151.158569646208093, -33.875190612170883 ], [ 151.158826716169898, -33.875201052194903 ], [ 151.159144376123209, -33.875210372224572 ], [ 151.159534926068204, -33.875203692260911 ], [ 151.160019096007375, -33.875140662305604 ], [ 151.160174405989295, -33.875109642319863 ], [ 151.160335005972001, -33.875067072334524 ], [ 151.16046866595812, -33.875028022346719 ], [ 151.1605911259457, -33.874989792357859 ], [ 151.160804575926761, -33.874903312377143 ], [ 151.161059205905019, -33.874793622400098 ], [ 151.161220525890997, -33.874725952414664 ], [ 151.161338575880222, -33.874680482425347 ], [ 151.161458985868336, -33.874640372436296 ], [ 151.16164502584823, -33.87459173245329 ], [ 151.161895855819381, -33.874539142476294 ], [ 151.162022545804234, -33.874516862487951 ], [ 151.162213005780245, -33.874492482505516 ], [ 151.16252719573896, -33.874465122534623 ], [ 151.163492945610244, -33.87439448262414 ], [ 151.163685555584351, -33.874382092642016 ], [ 151.164006025541596, -33.874358782671713 ], [ 151.164414825487484, -33.874326142709599 ], [ 151.164691895450744, -33.874304632735274 ], [ 151.164701205439201, -33.874380632736674 ], [ 151.164947475407502, -33.87435427275944 ], [ 151.165401895343962, -33.874343372801725 ], [ 151.165849715286726, -33.874291982843111 ], [ 151.166101715253177, -33.874273532866482 ], [ 151.166931865142544, -33.874212592943429 ], [ 151.167767425031172, -33.874151493020904 ], [ 151.168521624930605, -33.874096673090826 ], [ 151.169352514819849, -33.874036293167869 ], [ 151.169355464807751, -33.874123313168759 ], [ 151.169080514696446, -33.875247413151001 ], [ 151.168759784565367, -33.876568163130365 ], [ 151.168591484494925, -33.87727332311961 ], [ 151.168593274488245, -33.877321303120112 ], [ 151.168649444478774, -33.877332273125432 ], [ 151.168621854467261, -33.877447633123666 ], [ 151.168609444462362, -33.877497303122858 ], [ 151.168564474470941, -33.877481303118557 ], [ 151.168541444473135, -33.87748931311647 ], [ 151.16846443444075, -33.877813303111566 ], [ 151.168430414425927, -33.877960303109425 ], [ 151.168388434408882, -33.878132323106705 ], [ 151.168382414406693, -33.878155313106319 ], [ 151.168366314402647, -33.878202523105138 ], [ 151.168346424399203, -33.878249313103616 ], [ 151.168334414397862, -33.878272313102656 ], [ 151.168037454358227, -33.878885303079265 ], [ 151.167803454328975, -33.879353323060727 ], [ 151.16780443432441, -33.879386303061047 ], [ 151.167690224310348, -33.879613093052001 ], [ 151.167613724301049, -33.879764613045936 ], [ 151.167541054285152, -33.879960473040533 ], [ 151.167350554281882, -33.880188333024357 ], [ 151.167149444294324, -33.880310303006475 ], [ 151.167061914297221, -33.880382342998814 ], [ 151.166973694296985, -33.880478282991255 ], [ 151.166895144278953, -33.88069647298547 ], [ 151.166875694263439, -33.880833262984609 ], [ 151.166904964236664, -33.881001692988519 ], [ 151.166891064229048, -33.88107347298773 ], [ 151.166856244222629, -33.881158552985092 ], [ 151.166782724221633, -33.881244632978834 ], [ 151.166713704220655, -33.881325402972969 ], [ 151.166645234217896, -33.881419142967232 ], [ 151.16661534421479, -33.881474362964838 ], [ 151.166592304210667, -33.881529562963074 ], [ 151.166585444202695, -33.881596312962905 ], [ 151.166583144194419, -33.881660732963148 ], [ 151.166592304183212, -33.881734362964522 ], [ 151.166592304176135, -33.881787272964885 ], [ 151.166583144171312, -33.881833322964347 ], [ 151.166546284168874, -33.881890832961325 ], [ 151.166500294168003, -33.881946062957425 ], [ 151.166465764169288, -33.881973662954408 ], [ 151.16640823417319, -33.882005872949271 ], [ 151.166350714177725, -33.882033492944096 ], [ 151.166316224178644, -33.882063402941085 ], [ 151.16629089417367, -33.882127842939184 ], [ 151.166279394166054, -33.882196862938592 ], [ 151.166281694156737, -33.882263592939267 ], [ 151.166293194148011, -33.882316522940712 ], [ 151.166350714127788, -33.882406242946708 ], [ 151.166487044089052, -33.882549432960417 ], [ 151.166568514061851, -33.882665432968828 ], [ 151.166434514070545, -33.882743782956886 ], [ 151.166293994074351, -33.88286538294463 ], [ 151.166134124083214, -33.882969812930469 ], [ 151.165930304098907, -33.883070582912168 ], [ 151.165817964107163, -33.883129092902102 ], [ 151.165665864116846, -33.883219022888561 ], [ 151.165571364120183, -33.883295462880284 ], [ 151.165455474122325, -33.883402782870242 ], [ 151.16532075411601, -33.883594022859015 ], [ 151.165176294104924, -33.883831212847213 ], [ 151.165137274101596, -33.883897422844036 ], [ 151.165113544098006, -33.883949702842195 ], [ 151.165083654090125, -33.884040702840039 ], [ 151.165050184080968, -33.88414437283766 ], [ 151.1650245940709, -33.88424716283599 ], [ 151.165018504063028, -33.884312322835868 ], [ 151.164989304057286, -33.884386372833681 ], [ 151.164867644045103, -33.884607152823889 ], [ 151.16485034403803, -33.884678522822774 ], [ 151.164870853984496, -33.885056162827333 ], [ 151.16486618397218, -33.885152832827579 ], [ 151.164850343957141, -33.885282072826996 ], [ 151.164825523954477, -33.885328502825004 ], [ 151.164752493951056, -33.885431992818937 ], [ 151.164555863941786, -33.885711082802558 ], [ 151.164513743942052, -33.885754372798935 ], [ 151.164298503956843, -33.885873902779721 ], [ 151.164236923951847, -33.88597669277469 ], [ 151.164204513938955, -33.886107632772593 ], [ 151.164201633936273, -33.886130662772487 ], [ 151.164194443910674, -33.886329302773206 ], [ 151.163916893929525, -33.886485272748423 ], [ 151.163812133941406, -33.886508492738827 ], [ 151.163755233947143, -33.886526492733651 ], [ 151.163671363952233, -33.886577972726194 ], [ 151.163557263960541, -33.886637912715976 ], [ 151.163399543973838, -33.886707382701779 ], [ 151.163302303983443, -33.886739422692926 ], [ 151.163141083996038, -33.886817462678451 ], [ 151.163091043998634, -33.886851662674012 ], [ 151.162954974007363, -33.886932122661904 ], [ 151.162934384007599, -33.886952382660127 ], [ 151.162843284013206, -33.887007492652018 ], [ 151.162795174018243, -33.88702127264763 ], [ 151.162740644024694, -33.887031582642614 ], [ 151.162686444029674, -33.887052312637721 ], [ 151.162630414036357, -33.887062302632572 ], [ 151.162513684047582, -33.887103472621966 ], [ 151.162392914057108, -33.887161322611114 ], [ 151.162278154064239, -33.887230692600902 ], [ 151.162273664055334, -33.887301902601003 ], [ 151.162309474050573, -33.887299332604314 ], [ 151.162250774015689, -33.8876221926011 ], [ 151.162215844017879, -33.887643112597985 ], [ 151.162157993984437, -33.887954542594784 ], [ 151.162115403967704, -33.888124892592018 ], [ 151.161566444062402, -33.888004752540006 ], [ 151.161356564098412, -33.887960182520125 ], [ 151.161087634144536, -33.887903312494657 ], [ 151.16079245419607, -33.887834012466655 ], [ 151.160617844222713, -33.887821772450309 ], [ 151.160279814270268, -33.887828172418843 ], [ 151.160018434306892, -33.88783403239453 ], [ 151.160022744317558, -33.887749762394336 ], [ 151.159786594350834, -33.887753652372361 ], [ 151.159597594374219, -33.887781182354935 ], [ 151.159390234399581, -33.887813592335839 ], [ 151.159268914413474, -33.887839412324723 ], [ 151.159146164427511, -33.887865592313467 ], [ 151.15885310446194, -33.887922042286547 ], [ 151.158004954560653, -33.888091682208703 ], [ 151.157819494581872, -33.888131362191686 ], [ 151.157617574604984, -33.888174582173178 ], [ 151.157119714662002, -33.888281142127532 ], [ 151.156785634700782, -33.888348632096871 ], [ 151.156572474725266, -33.888393772077315 ], [ 151.15555372484377, -33.888597931983831 ], [ 151.155303884873035, -33.888646631960889 ], [ 151.154880884924097, -33.888717441921969 ], [ 151.154421424981365, -33.888780921879601 ], [ 151.153968635037813, -33.888843451837857 ], [ 151.153549255090979, -33.888895281799144 ], [ 151.153230645130748, -33.888938571769756 ], [ 151.153143885141247, -33.888952891761782 ], [ 151.15293506516656, -33.888987171742571 ], [ 151.152390045231527, -33.88908484169248 ], [ 151.152036875272273, -33.889158261660093 ], [ 151.151359035347696, -33.889319541598063 ], [ 151.150974875390602, -33.889410181562901 ], [ 151.149556805549253, -33.889741571433127 ], [ 151.149075155603356, -33.889852251389051 ], [ 151.148923245620438, -33.889887181375137 ], [ 151.148461375673435, -33.889985381332799 ], [ 151.148416735678552, -33.889994651328713 ], [ 151.14806140572415, -33.890034331295887 ], [ 151.147935375741781, -33.890037471284174 ], [ 151.147737395770548, -33.890034511265704 ], [ 151.147634425786094, -33.890028321256061 ], [ 151.147515295804141, -33.890021101244919 ], [ 151.147427075817177, -33.890018051236687 ], [ 151.147119305862816, -33.890006151207928 ], [ 151.146996885881919, -33.889994551196452 ], [ 151.146767185918861, -33.889964121174849 ], [ 151.146539535955526, -33.889933931153422 ], [ 151.146307145992921, -33.889903111131559 ], [ 151.145658026096328, -33.889824981070547 ], [ 151.14533135614883, -33.889782171039833 ], [ 151.145142176179263, -33.889757491022031 ], [ 151.144974056207673, -33.889725011006142 ], [ 151.144953356211687, -33.889717071004171 ], [ 151.144951896217464, -33.889675731003734 ], [ 151.144907916267925, -33.889345720997326 ], [ 151.144791916417262, -33.888354710979584 ], [ 151.144793886430364, -33.888254720979056 ], [ 151.144829876436717, -33.888168720981824 ], [ 151.144849846450995, -33.888040730982773 ], [ 151.144833856459201, -33.887996720980986 ], [ 151.144836846481667, -33.887825720980061 ], [ 151.144802576505413, -33.887684900975884 ], [ 151.144773856525347, -33.887566730972388 ], [ 151.144559856606321, -33.887190730949811 ], [ 151.144599856637029, -33.886918730951635 ], [ 151.144606826685845, -33.886546730949668 ], [ 151.144627116718709, -33.886279640949688 ], [ 151.144654826763343, -33.885916730949731 ], [ 151.144675846781354, -33.885759720950581 ], [ 151.144683846833914, -33.885358730948518 ], [ 151.144703406870065, -33.885067630948299 ], [ 151.144759796974483, -33.884227700947662 ], [ 151.144789916979647, -33.884156560949961 ], [ 151.144795786980694, -33.884142710950414 ], [ 151.14479976719889, -33.882508700939326 ], [ 151.144832767225097, -33.88227770094079 ], [ 151.14489473723296, -33.882152700945682 ], [ 151.145429097281777, -33.881216970988895 ] ] ] ] } },
{ "type": "Feature", "properties": { "SA2_CODE21": "209041437", "SA2_NAME21": "Wollert", "CHG_FLAG21": "0", "CHG_LBL21": "No change", "SA3_CODE21": "20904", "SA3_NAME21": "Whittlesea - Wallan", "SA4_CODE21": "209", "SA4_NAME21": "Melbourne - North East", "GCC_CODE21": "2GMEL", "GCC_NAME21": "Greater Melbourne", "STE_CODE21": "2", "STE_NAME21": "Victoria", "AUS_CODE21": "AUS", "AUS_NAME21": "Australia", "AREASQKM21": 53.892, "LOCI_URI21": "http://linked.data.gov.au/dataset/asgsed3/SA2/209041437" }, "geometry": { "type": "MultiPolygon", "coordinates": [ [ [ [ 144.992021782740437, -37.619255208179524 ], [ 144.991897872763104, -37.619243188170948 ], [ 144.990686462984598, -37.619125718087304 ], [ 144.988040943468206, -37.61886984790462 ], [ 144.98438196414051, -37.618484837651799 ], [ 144.98008894492753, -37.618048827355359 ], [ 144.969666956844293, -37.616933836635646 ], [ 144.96968294685152, -37.616841836636176 ], [ 144.969581986870026, -37.616831606629212 ], [ 144.96688295736476, -37.616557836442979 ], [ 144.961795988297496, -37.616039846092086 ], [ 144.954588449617177, -37.61532313559519 ], [ 144.954649659622305, -37.615177505598453 ], [ 144.954701819625086, -37.615068425601351 ], [ 144.954751529625213, -37.614987875604236 ], [ 144.954793649626907, -37.614904905606586 ], [ 144.954809819631294, -37.614838745607287 ], [ 144.954805909640612, -37.61475854560652 ], [ 144.954779229654662, -37.614671085604172 ], [ 144.954658639695168, -37.614488285594774 ], [ 144.954529429734663, -37.614328535584953 ], [ 144.954363099782199, -37.614153935572517 ], [ 144.954233119820486, -37.614006435562708 ], [ 144.954167599841156, -37.613919575557695 ], [ 144.95412007985567, -37.613861525554093 ], [ 144.954011709892029, -37.613697275545661 ], [ 144.953952689907908, -37.613644815541299 ], [ 144.953895089918745, -37.613635895537314 ], [ 144.953832419928744, -37.613643555533081 ], [ 144.953736679941699, -37.613676395526745 ], [ 144.953585139962428, -37.613726155516709 ], [ 144.953480339976181, -37.613766305509799 ], [ 144.953378469988735, -37.613812565503132 ], [ 144.953281999998524, -37.613876005496934 ], [ 144.953141950014867, -37.613948285487808 ], [ 144.952990770034859, -37.614004355477839 ], [ 144.95287809005174, -37.61402776547029 ], [ 144.952778740068737, -37.614029115463516 ], [ 144.952695560084607, -37.614015165457737 ], [ 144.952584340108672, -37.613969615449861 ], [ 144.952438490144459, -37.613870885439297 ], [ 144.952328370172665, -37.613785305431229 ], [ 144.952226130202519, -37.613672085423559 ], [ 144.95212422023522, -37.613531685415701 ], [ 144.952043960262472, -37.613407285409451 ], [ 144.951974140285699, -37.613303705404043 ], [ 144.951926940299927, -37.613247455400476 ], [ 144.951877300316937, -37.613168785396574 ], [ 144.951879420326094, -37.613080695396185 ], [ 144.95192482032823, -37.612988615398706 ], [ 144.952007610323705, -37.612897985403798 ], [ 144.952138640313194, -37.612786395412051 ], [ 144.952226460305553, -37.612716725417613 ], [ 144.95227365030118, -37.612681975420628 ], [ 144.952333370295264, -37.612641485424447 ], [ 144.952422680287611, -37.612569665430101 ], [ 144.952604490269806, -37.612444105441732 ], [ 144.952719320261849, -37.612334775448893 ], [ 144.952813640260985, -37.612192025454455 ], [ 144.952848570268458, -37.612067115456064 ], [ 144.952830570281975, -37.611970455454212 ], [ 144.95276936030757, -37.611831475449179 ], [ 144.952677930337472, -37.611699995442109 ], [ 144.95256919037368, -37.611538185433666 ], [ 144.952558030384949, -37.611451415432384 ], [ 144.952674310379308, -37.611318405439491 ], [ 144.95268260038597, -37.611243255439589 ], [ 144.952675740402725, -37.611098975438225 ], [ 144.952592960441791, -37.610868855431136 ], [ 144.952416550494064, -37.610666255417826 ], [ 144.952284060528143, -37.610562395408117 ], [ 144.95208608057419, -37.610451785393927 ], [ 144.951904640605648, -37.610449895381521 ], [ 144.951746270631531, -37.61046284537079 ], [ 144.951546100660892, -37.610510655357402 ], [ 144.951434480666393, -37.61063782535058 ], [ 144.951372540668473, -37.610717745346847 ], [ 144.951203360681717, -37.610865055336205 ], [ 144.950946660704318, -37.61106532531992 ], [ 144.950691090733216, -37.611205805303356 ], [ 144.950489500764945, -37.611233525289748 ], [ 144.950317400805204, -37.61113560527739 ], [ 144.950146760859326, -37.610906555264314 ], [ 144.950013210906747, -37.610680295253779 ], [ 144.949868850972024, -37.610305805241588 ], [ 144.949795050998262, -37.610180615235777 ], [ 144.949718001021864, -37.610084855229921 ], [ 144.949580831061837, -37.609933375219605 ], [ 144.94940694110889, -37.609774985206734 ], [ 144.94932851113316, -37.609675455200772 ], [ 144.94930869115052, -37.609546115198604 ], [ 144.949268021170866, -37.609422375195052 ], [ 144.949157141205063, -37.609282605186621 ], [ 144.948954781263296, -37.609066225171453 ], [ 144.948746001320274, -37.60887157515598 ], [ 144.948589781363751, -37.608718115144356 ], [ 144.948483901394269, -37.608604265136414 ], [ 144.948404001423455, -37.608461425130074 ], [ 144.948313621450268, -37.60835740512325 ], [ 144.948262491465215, -37.608300695119411 ], [ 144.948188031483767, -37.608247415113993 ], [ 144.947995741525006, -37.608172175100385 ], [ 144.947710641578141, -37.608134925080698 ], [ 144.947430581630982, -37.608092355061316 ], [ 144.947204131677154, -37.608026475045428 ], [ 144.946992801721507, -37.607952755030546 ], [ 144.94685778175176, -37.607887775020913 ], [ 144.946739381779253, -37.607822065012428 ], [ 144.946665941798869, -37.607757905007013 ], [ 144.946501401849048, -37.607555314994521 ], [ 144.946466471870508, -37.60741247499125 ], [ 144.946480881886032, -37.607245534991186 ], [ 144.946594621884174, -37.607080914997923 ], [ 144.946680691877788, -37.607002725003312 ], [ 144.946859971851239, -37.606962225015309 ], [ 144.94700502182539, -37.606970405025244 ], [ 144.947453211748297, -37.606969055055849 ], [ 144.947734771700283, -37.606964365075051 ], [ 144.947932051668005, -37.606948625088414 ], [ 144.948211061625301, -37.60689858510716 ], [ 144.948518461580221, -37.606825605127696 ], [ 144.948708951548554, -37.606814515140634 ], [ 144.948977481494438, -37.606887425159421 ], [ 144.949226961441781, -37.606976895177013 ], [ 144.949444031397945, -37.607036835192211 ], [ 144.949627261365265, -37.607046825204783 ], [ 144.949864871328174, -37.60701108522079 ], [ 144.950201111278915, -37.606931165243246 ], [ 144.950504241238548, -37.606820825263263 ], [ 144.950650751220735, -37.606752245272837 ], [ 144.950811321196966, -37.606716155283586 ], [ 144.950952061169573, -37.606745215293365 ], [ 144.951093941138708, -37.606804625303432 ], [ 144.951220991108329, -37.606883195312591 ], [ 144.951355281076957, -37.606959595322238 ], [ 144.951458611054676, -37.607000905329556 ], [ 144.951532741039244, -37.607025565334773 ], [ 144.951677831009903, -37.607065895344931 ], [ 144.951800980985411, -37.607096215353536 ], [ 144.951970890954897, -37.607107835365213 ], [ 144.95206772094167, -37.607075705371628 ], [ 144.952268620920592, -37.60695032538456 ], [ 144.952354650921023, -37.606808585389565 ], [ 144.952347420941493, -37.606630835387953 ], [ 144.95232008096778, -37.606430845384843 ], [ 144.952285520990756, -37.606273075381502 ], [ 144.952270771008642, -37.606130705379591 ], [ 144.952265001014382, -37.606086695378941 ], [ 144.952261031026296, -37.605982925378022 ], [ 144.952248801039303, -37.605881585376544 ], [ 144.952225401062805, -37.605701135373835 ], [ 144.952209561077126, -37.605593665372083 ], [ 144.952168861106657, -37.60538506536799 ], [ 144.952156631122421, -37.605258785366381 ], [ 144.952141891135284, -37.605163025364774 ], [ 144.952125321148515, -37.605066735363039 ], [ 144.95211703116351, -37.60494082536168 ], [ 144.952066301204383, -37.604643455356367 ], [ 144.952045781225422, -37.604480915353953 ], [ 144.952043231245369, -37.604300365352664 ], [ 144.952062321254715, -37.604182835353235 ], [ 144.952098711262835, -37.60404963535489 ], [ 144.952156631265723, -37.603930645358098 ], [ 144.952231901258955, -37.603872875362867 ], [ 144.952307121250044, -37.603835355367785 ], [ 144.952440311227718, -37.603829585376843 ], [ 144.952645521191982, -37.603833095390868 ], [ 144.952853971158845, -37.603807525404967 ], [ 144.95302136113574, -37.603754155416055 ], [ 144.953102721128147, -37.603694775421246 ], [ 144.953131881132549, -37.603607475422699 ], [ 144.953121441142571, -37.603531325421507 ], [ 144.953068881165478, -37.60340299541712 ], [ 144.952933171212521, -37.603183565406482 ], [ 144.952837031248151, -37.603006715398813 ], [ 144.952812211263563, -37.602903845396476 ], [ 144.952824801269941, -37.602824455396835 ], [ 144.952824071273966, -37.602788105396563 ], [ 144.952819771280474, -37.602735015395936 ], [ 144.952825901281614, -37.602714565396219 ], [ 144.95284353128153, -37.602687485397269 ], [ 144.952871601280179, -37.602654905398978 ], [ 144.952932811280107, -37.602557795402568 ], [ 144.953009491284945, -37.602390305406736 ], [ 144.953131881294183, -37.602109595413353 ], [ 144.953260031300061, -37.601850485420492 ], [ 144.953323761305086, -37.601702175423931 ], [ 144.953372011312069, -37.601560055426326 ], [ 144.953396501321691, -37.60143179542721 ], [ 144.953428191331028, -37.601295005428518 ], [ 144.953432131342197, -37.601185115428102 ], [ 144.953416651355781, -37.601083955426425 ], [ 144.953377051370097, -37.601014475423277 ], [ 144.953327011384005, -37.600965335419545 ], [ 144.953247441401686, -37.600928705413892 ], [ 144.953126841426098, -37.600894775405443 ], [ 144.952986791456254, -37.600839245395527 ], [ 144.952891421481013, -37.60076167538854 ], [ 144.952841011499203, -37.600673555384532 ], [ 144.952774761524495, -37.60054503537922 ], [ 144.952706361548223, -37.600434235373854 ], [ 144.952630771572615, -37.600329035368027 ], [ 144.952555181598171, -37.600212945362152 ], [ 144.952351401663748, -37.599930335346478 ], [ 144.952238361702257, -37.59975393533766 ], [ 144.952214961717175, -37.599652685335428 ], [ 144.952237991719414, -37.599595265336646 ], [ 144.952306071712229, -37.599553675341035 ], [ 144.952428451693663, -37.599529825349244 ], [ 144.952569561670998, -37.599514715358779 ], [ 144.952666071659536, -37.599467095365078 ], [ 144.952706731663568, -37.599364865367207 ], [ 144.952696651679503, -37.599232925365705 ], [ 144.952611681717826, -37.599013515358536 ], [ 144.952586131734506, -37.598899575356086 ], [ 144.952543611751821, -37.598807055352594 ], [ 144.952520981766355, -37.598708675350437 ], [ 144.952567731770216, -37.598597895352952 ], [ 144.95266566176582, -37.598482415358909 ], [ 144.952743081760445, -37.598408345363737 ], [ 144.952816881756007, -37.598332215368302 ], [ 144.952878791755182, -37.598240495371954 ], [ 144.952898941759429, -37.598169305372892 ], [ 144.952893211771169, -37.598069585371881 ], [ 144.952901131781658, -37.597959695371735 ], [ 144.952969531778479, -37.597879775375915 ], [ 144.953076431769489, -37.597792665382663 ], [ 144.953136191770909, -37.597684125386067 ], [ 144.953113851787322, -37.597567735383826 ], [ 144.953062421811836, -37.597422315379404 ], [ 144.953044791861117, -37.596993815375527 ], [ 144.953045121875988, -37.596855485374682 ], [ 144.953011651889909, -37.596779715371937 ], [ 144.952967371906055, -37.596700955368412 ], [ 144.952968071919997, -37.596570365367647 ], [ 144.953010921930314, -37.596406295369547 ], [ 144.953102391929434, -37.596268315374935 ], [ 144.95325069191864, -37.59613162538421 ], [ 144.953375591907445, -37.596036215392154 ], [ 144.953471001901988, -37.595934525398036 ], [ 144.953569991888713, -37.595899335404575 ], [ 144.953688071866196, -37.595919485412772 ], [ 144.953842531833203, -37.59597879542369 ], [ 144.953994451800497, -37.596039455434443 ], [ 144.954126171780359, -37.596016055443293 ], [ 144.95425006176842, -37.595928935451219 ], [ 144.954385031760722, -37.595784765459541 ], [ 144.954478621753907, -37.595698445465395 ], [ 144.954604291743465, -37.595594765473315 ], [ 144.954750801729148, -37.595493245482693 ], [ 144.954803721730059, -37.595400375485731 ], [ 144.954864931733624, -37.595269875489102 ], [ 144.955012181738454, -37.594989965497426 ], [ 144.95508740174165, -37.59484030550162 ], [ 144.955095321757142, -37.59468405550119 ], [ 144.955063281779502, -37.594528165498026 ], [ 144.955026191799902, -37.594397945494684 ], [ 144.954975821825144, -37.594244325490287 ], [ 144.954926111858072, -37.59401842548548 ], [ 144.954904871887351, -37.593780895482553 ], [ 144.954891911911687, -37.593576165480393 ], [ 144.954888331930732, -37.593405605479084 ], [ 144.95490884193822, -37.593303265479854 ], [ 144.954956001943287, -37.593181055482304 ], [ 144.955013271947251, -37.593052725485407 ], [ 144.955175261933448, -37.592922035495668 ], [ 144.955433351901945, -37.59280243551256 ], [ 144.955618401875086, -37.592755815524903 ], [ 144.955686441866675, -37.592725125529356 ], [ 144.955708051870431, -37.592655725530399 ], [ 144.955697241882291, -37.592563215529076 ], [ 144.955649361907831, -37.592403005524815 ], [ 144.955614101928603, -37.592266565521562 ], [ 144.955647201938916, -37.592118345522898 ], [ 144.955718491938512, -37.592008085527077 ], [ 144.955736851943726, -37.591930515527849 ], [ 144.955732871950289, -37.591876045527236 ], [ 144.955698701964621, -37.591797475524423 ], [ 144.955686081975898, -37.591713525523026 ], [ 144.955709141987001, -37.591573665523732 ], [ 144.955791201995368, -37.591365135528036 ], [ 144.955883361991937, -37.591249655533609 ], [ 144.955958951983604, -37.591206185538503 ], [ 144.956019831974032, -37.591198005542623 ], [ 144.956076331960531, -37.591232915546684 ], [ 144.956141491945914, -37.591264605551338 ], [ 144.956241571927251, -37.591277555558264 ], [ 144.956348841911449, -37.591252805565432 ], [ 144.956464041896254, -37.591209885573036 ], [ 144.956592191878173, -37.591172975581557 ], [ 144.956726471854751, -37.591175765590741 ], [ 144.956844551829818, -37.59121824559908 ], [ 144.956918391806312, -37.591318235604746 ], [ 144.957031061771204, -37.591463775613349 ], [ 144.957193011732016, -37.591568425625063 ], [ 144.95743640168817, -37.591586615641802 ], [ 144.957618201658335, -37.591573105654142 ], [ 144.957761141639111, -37.591522715663594 ], [ 144.957864471633286, -37.591412015669967 ], [ 144.957989011623937, -37.591299955677776 ], [ 144.958251081585757, -37.591235425695281 ], [ 144.958466351549561, -37.591227255709931 ], [ 144.958662911519269, -37.591194585723159 ], [ 144.958809091500996, -37.591130585732756 ], [ 144.958828871511344, -37.591003235733318 ], [ 144.958746091539098, -37.590877765726866 ], [ 144.958705761554313, -37.590801365723642 ], [ 144.958678051573827, -37.590664485720893 ], [ 144.958658961590032, -37.590544955718833 ], [ 144.958589471613038, -37.590442725713451 ], [ 144.958451611657097, -37.590254075702866 ], [ 144.958280611709881, -37.590037815689826 ], [ 144.958068541771183, -37.589808115673904 ], [ 144.957911961810538, -37.589693195662498 ], [ 144.957689491866006, -37.589534165646299 ], [ 144.957515971914319, -37.589363335633394 ], [ 144.957410811948222, -37.589217005625294 ], [ 144.957330221978054, -37.58906913561885 ], [ 144.957287372000735, -37.588927385615051 ], [ 144.957280872014962, -37.588805785613843 ], [ 144.957317262017426, -37.588724795615825 ], [ 144.957419502012186, -37.588610405622106 ], [ 144.957556661998325, -37.5885197756309 ], [ 144.957690581983428, -37.588444355639581 ], [ 144.95776723197676, -37.588383875644439 ], [ 144.957835671978131, -37.588261925648368 ], [ 144.957895061983265, -37.588119175651514 ], [ 144.957918091994969, -37.587974095652186 ], [ 144.957873812016032, -37.587849545648403 ], [ 144.95778486204668, -37.587707255641419 ], [ 144.957744572063859, -37.587612755638091 ], [ 144.957707852083672, -37.587487755634797 ], [ 144.957708212095241, -37.587379755634153 ], [ 144.957746722102598, -37.587250145635963 ], [ 144.957756472126135, -37.587016225635182 ], [ 144.957745302135123, -37.586950445634002 ], [ 144.957711422149174, -37.586874755631221 ], [ 144.957656352167163, -37.586795815626964 ], [ 144.957598422187715, -37.586697365622399 ], [ 144.957533272212856, -37.586568675617144 ], [ 144.957499762222369, -37.586533935614625 ], [ 144.957467022233971, -37.586478925612063 ], [ 144.957426322250313, -37.586391905608728 ], [ 144.957364052270918, -37.586300555603913 ], [ 144.957292042289623, -37.586241875598624 ], [ 144.957198782311252, -37.586190315591935 ], [ 144.957115672331156, -37.586138385585933 ], [ 144.957062752350055, -37.586047475581744 ], [ 144.957021682367042, -37.58595586557837 ], [ 144.956979562383538, -37.585870005574947 ], [ 144.956953282400747, -37.585752635572433 ], [ 144.956975262410822, -37.585624375573133 ], [ 144.957033912412527, -37.585514585576455 ], [ 144.957090782408358, -37.585462395580009 ], [ 144.957186232398016, -37.585406225586176 ], [ 144.957306782381409, -37.585367525594179 ], [ 144.957418042363713, -37.585354395601698 ], [ 144.957486802351298, -37.58535916560642 ], [ 144.957558782338936, -37.585359235611342 ], [ 144.957619632329312, -37.585351225615447 ], [ 144.957686972319436, -37.585335295619956 ], [ 144.95775825231047, -37.585304535624637 ], [ 144.957832062300582, -37.585278685629511 ], [ 144.957885672292264, -37.585269975633118 ], [ 144.957978932274756, -37.585283365639583 ], [ 144.958077192254706, -37.585312705646473 ], [ 144.958143072240915, -37.585335385651113 ], [ 144.95818808223251, -37.585341695654222 ], [ 144.958298232215668, -37.585321625661621 ], [ 144.9584004721996, -37.58530749566853 ], [ 144.95846745219103, -37.585280035672938 ], [ 144.958504172189862, -37.585232345675145 ], [ 144.95850559219673, -37.585166465674831 ], [ 144.958496982204792, -37.585105265673846 ], [ 144.958484022209547, -37.585081865672834 ], [ 144.958452672220005, -37.58503515567039 ], [ 144.958395432235392, -37.584983665666165 ], [ 144.958324512253228, -37.584931645661001 ], [ 144.958247102272168, -37.584879805655383 ], [ 144.958132632299993, -37.584804665647084 ], [ 144.958045142324551, -37.58471619564056 ], [ 144.957930312353454, -37.584631875632184 ], [ 144.957860492372134, -37.584569865627032 ], [ 144.957762932398737, -37.584478955619794 ], [ 144.957692012418818, -37.584406065614502 ], [ 144.957636202444689, -37.584255125609744 ], [ 144.957594442466075, -37.584123735606077 ], [ 144.95753287248985, -37.584001685601109 ], [ 144.957455852512737, -37.583912315595292 ], [ 144.957338872545677, -37.583793605586557 ], [ 144.957209622576897, -37.583710725577205 ], [ 144.957092972605636, -37.583630335568742 ], [ 144.956974162634225, -37.583555095560158 ], [ 144.956870462661641, -37.583466095552517 ], [ 144.956810712683932, -37.58335494554774 ], [ 144.956790932698055, -37.583255235545764 ], [ 144.956792352705946, -37.583179805545392 ], [ 144.956788782712295, -37.583127065544815 ], [ 144.956772532720692, -37.58307494554338 ], [ 144.956750962729956, -37.583023835541582 ], [ 144.956706692745627, -37.582948775538092 ], [ 144.956673582761169, -37.582857615535275 ], [ 144.956668872770223, -37.582781115534473 ], [ 144.956667412775516, -37.582734665534097 ], [ 144.956649782782989, -37.582693625532627 ], [ 144.956612372794865, -37.582643145529751 ], [ 144.956586092806845, -37.58257384552752 ], [ 144.956596172813505, -37.58249608552773 ], [ 144.956645842816243, -37.58239157553048 ], [ 144.956697672818677, -37.582286015533356 ], [ 144.956773992817261, -37.582177385537896 ], [ 144.956850682813837, -37.582086565542561 ], [ 144.956939602810309, -37.581977585547961 ], [ 144.956994312809087, -37.581901275551211 ], [ 144.957059102809978, -37.581789845554944 ], [ 144.957114212806687, -37.581732165558357 ], [ 144.957190532798364, -37.581687695563282 ], [ 144.957398582770992, -37.58160958557702 ], [ 144.957490422758696, -37.581576915583085 ], [ 144.957556662750193, -37.581550085587445 ], [ 144.957603422742579, -37.581545755590618 ], [ 144.95764518273441, -37.581555115593524 ], [ 144.957680842725239, -37.58158329559614 ], [ 144.957733432713383, -37.581609485599898 ], [ 144.957806472698536, -37.581630285605009 ], [ 144.957920972677186, -37.581645305612923 ], [ 144.958203552623218, -37.581694975632551 ], [ 144.95840624258534, -37.581722805646564 ], [ 144.958549872561662, -37.58171281565631 ], [ 144.958630902547952, -37.581710835661838 ], [ 144.958708642533225, -37.581723155667234 ], [ 144.958784632517336, -37.581749255672584 ], [ 144.958871362500616, -37.581765725678615 ], [ 144.95895056248682, -37.581767165684042 ], [ 144.959031562473456, -37.581761765689542 ], [ 144.959118322457357, -37.58177256569553 ], [ 144.959191752442337, -37.581794525700673 ], [ 144.959252602431519, -37.581797955704857 ], [ 144.959313812420447, -37.581802535709073 ], [ 144.959383672406517, -37.581820985713961 ], [ 144.959461782392253, -37.58182817571933 ], [ 144.959533762381682, -37.581811175724162 ], [ 144.959609352371018, -37.581789665729183 ], [ 144.959710162353616, -37.58179003573607 ], [ 144.959815282333778, -37.581806055743357 ], [ 144.959926542313127, -37.581820165751047 ], [ 144.959978732304847, -37.581813605754576 ], [ 144.960022642300913, -37.58178004575737 ], [ 144.960032352302363, -37.581750795757834 ], [ 144.960016512311114, -37.5816951657564 ], [ 144.959975122332196, -37.581565735752775 ], [ 144.959963982342259, -37.581490235751545 ], [ 144.959999612352107, -37.581342185753059 ], [ 144.960010412358059, -37.58126992575334 ], [ 144.960055052358427, -37.581195125755926 ], [ 144.960095712360129, -37.581114485758206 ], [ 144.960101482367179, -37.581040065758138 ], [ 144.960101482379514, -37.580925485757419 ], [ 144.960109402397677, -37.580744575756832 ], [ 144.960157652405854, -37.580591955759175 ], [ 144.960226752406584, -37.58047484576317 ], [ 144.960355632397949, -37.580349125771193 ], [ 144.960486702385083, -37.580259655779585 ], [ 144.960649782365493, -37.580180735790243 ], [ 144.960764982352629, -37.580116115797715 ], [ 144.96091543233149, -37.580071845807709 ], [ 144.961046832310075, -37.580060855816633 ], [ 144.961229002283517, -37.580016305828792 ], [ 144.961441762254481, -37.579946285842894 ], [ 144.962086502163885, -37.579757105885768 ], [ 144.962235932142448, -37.579717685895737 ], [ 144.962337802129127, -37.579678345902458 ], [ 144.962428542118062, -37.579636505908404 ], [ 144.962504492108991, -37.57959915591335 ], [ 144.962618262092349, -37.579571785920955 ], [ 144.962751092073376, -37.579536065929808 ], [ 144.962796822066622, -37.579525535932873 ], [ 144.962831722060514, -37.579526425935271 ], [ 144.962885742052094, -37.579518605938915 ], [ 144.962943702043987, -37.579501065942758 ], [ 144.96301206203637, -37.579462265947193 ], [ 144.963101342025681, -37.579419075953027 ], [ 144.963222702010682, -37.579364605960976 ], [ 144.963270562007608, -37.579316735963936 ], [ 144.963293952008371, -37.579272365965274 ], [ 144.963312682012145, -37.579207375966156 ], [ 144.963331402015285, -37.579148345967049 ], [ 144.963346882019835, -37.579081655967691 ], [ 144.96334221202477, -37.579043505967149 ], [ 144.963327422031909, -37.579000745965864 ], [ 144.963243552062977, -37.578846575959162 ], [ 144.963131602095331, -37.578725245950757 ], [ 144.963089852108567, -37.578669355947554 ], [ 144.963025752123059, -37.578637315942984 ], [ 144.962939032143453, -37.578586385936731 ], [ 144.962883912157395, -37.578545265932718 ], [ 144.962837482170812, -37.578495125929223 ], [ 144.962798252182552, -37.578448695926255 ], [ 144.962690942209122, -37.57837371591846 ], [ 144.962581142237667, -37.578284265910391 ], [ 144.962488292263572, -37.578192285903476 ], [ 144.962409812288371, -37.578087425897465 ], [ 144.962357952307826, -37.577989875893302 ], [ 144.96232809232464, -37.577881685890588 ], [ 144.96233134233438, -37.577786465890206 ], [ 144.962342842345521, -37.577664695890242 ], [ 144.962366602352603, -37.577561195891221 ], [ 144.962414852355579, -37.577456605893879 ], [ 144.962488652353642, -37.57735680589829 ], [ 144.962607832349903, -37.577201105905459 ], [ 144.962681262347019, -37.57711091590992 ], [ 144.962782412336992, -37.577042525916404 ], [ 144.962863762329647, -37.576980885921579 ], [ 144.962944032327471, -37.576873045926384 ], [ 144.963005272334897, -37.576706285929525 ], [ 144.963060322333746, -37.576629065932821 ], [ 144.963119742336204, -37.576511515936147 ], [ 144.963188502336209, -37.576401725940151 ], [ 144.963300082331159, -37.576270595946973 ], [ 144.963413822325435, -37.576142445953948 ], [ 144.963516462321905, -37.576011665960138 ], [ 144.963742542309092, -37.575769655974085 ], [ 144.963841162302344, -37.575674895980228 ], [ 144.963962492291472, -37.575581825987939 ], [ 144.964094252277619, -37.575500455996441 ], [ 144.96418641226839, -37.575438726002346 ], [ 144.964249412262546, -37.575392196006362 ], [ 144.964310952258273, -37.575333696010212 ], [ 144.964389792254394, -37.575244136015037 ], [ 144.96444954225197, -37.575171246018662 ], [ 144.964475862255654, -37.575095286019994 ], [ 144.964506082262517, -37.574983236021353 ], [ 144.964506452274378, -37.5748728060207 ], [ 144.964497102287993, -37.574761566019376 ], [ 144.964499582300164, -37.574644836018805 ], [ 144.964523382305686, -37.574555556019874 ], [ 144.964580612310499, -37.57441965602294 ], [ 144.964684312323243, -37.574136156028253 ], [ 144.964710552330615, -37.574026086029356 ], [ 144.964732532332931, -37.573969656030506 ], [ 144.964762062331317, -37.573937266032324 ], [ 144.964833302324763, -37.573884426036884 ], [ 144.96494492231318, -37.573814216044056 ], [ 144.965055082302342, -37.573738726051118 ], [ 144.965156992291867, -37.573672916057674 ], [ 144.965218522286222, -37.573627206061595 ], [ 144.965289442284387, -37.573531446065843 ], [ 144.965284772292392, -37.573464406065121 ], [ 144.965228232314416, -37.573350726060539 ], [ 144.965150492342332, -37.573215636054371 ], [ 144.96509216236376, -37.573110076049723 ], [ 144.965102602372752, -37.573010176049834 ], [ 144.965150492377347, -37.57289118605236 ], [ 144.965190792388086, -37.57272738605409 ], [ 144.965208452399082, -37.572597416054492 ], [ 144.965264952408688, -37.572418156057225 ], [ 144.965268972409007, -37.572408836057434 ], [ 144.965348502413576, -37.572239406061826 ], [ 144.965358212419602, -37.572168126062039 ], [ 144.96532470243929, -37.572039076058942 ], [ 144.96523542246527, -37.571940616052231 ], [ 144.965101872493932, -37.571888036042765 ], [ 144.964953942522897, -37.571855386032453 ], [ 144.964780382554437, -37.571840086020494 ], [ 144.964620222581601, -37.571843956009573 ], [ 144.964338332629126, -37.571852755990371 ], [ 144.964097462671731, -37.571842065973833 ], [ 144.963954932698385, -37.571822345963966 ], [ 144.963840802724263, -37.571764565955817 ], [ 144.963766632747706, -37.571665295950126 ], [ 144.963750792762227, -37.57155622594837 ], [ 144.963750092774006, -37.571448035947647 ], [ 144.963755502785318, -37.57133481594731 ], [ 144.96378210279218, -37.571228435948463 ], [ 144.96380948279554, -37.571153545949869 ], [ 144.963895142800766, -37.570968605954562 ], [ 144.963949532807362, -37.570820645957369 ], [ 144.963983002817315, -37.570674935958735 ], [ 144.963977962831933, -37.570547765957606 ], [ 144.963939782852151, -37.570420855954204 ], [ 144.963925042867004, -37.570307195952466 ], [ 144.963959242873756, -37.570189575954082 ], [ 144.964063662881017, -37.569955845959768 ], [ 144.964114072887384, -37.569816865962338 ], [ 144.964146782915407, -37.569504665962633 ], [ 144.964150022931165, -37.569353115961896 ], [ 144.964134912946975, -37.569230785960116 ], [ 144.964089542975785, -37.569035855955796 ], [ 144.964095352984572, -37.568945315955624 ], [ 144.964102542988769, -37.568894825955795 ], [ 144.964129152992683, -37.568816255957124 ], [ 144.964147872999121, -37.568726605957842 ], [ 144.964133123013852, -37.568613755956143 ], [ 144.964048523045989, -37.568450495949342 ], [ 144.963943763078163, -37.568319555941358 ], [ 144.963854123103857, -37.568224245934637 ], [ 144.963659353161518, -37.568000315919932 ], [ 144.963484783211612, -37.567814375906849 ], [ 144.963394403246468, -37.567635275899548 ], [ 144.963296843287196, -37.567413235891493 ], [ 144.963259393307936, -37.567280945888108 ], [ 144.963237093324352, -37.567164115885859 ], [ 144.963261183329195, -37.567081055886987 ], [ 144.963307643331945, -37.566981425889544 ], [ 144.963384333327411, -37.566901045894284 ], [ 144.96346893331858, -37.566848225899733 ], [ 144.963515733315717, -37.566799885902633 ], [ 144.963673413299318, -37.566700355912793 ], [ 144.963759443287302, -37.566674695918515 ], [ 144.963873573272025, -37.56663420592605 ], [ 144.963967163262112, -37.566576965932093 ], [ 144.964054283258292, -37.566473295937399 ], [ 144.964060053273698, -37.566321185936843 ], [ 144.964007863299628, -37.566164045932297 ], [ 144.963954203323198, -37.566031215927794 ], [ 144.963887953346926, -37.565916715922555 ], [ 144.963746483392498, -37.565719895911677 ], [ 144.963704363412802, -37.565598755908027 ], [ 144.963693593427024, -37.565484375906586 ], [ 144.96374830342927, -37.565376095909642 ], [ 144.96384404342723, -37.565242005915358 ], [ 144.963986943427614, -37.565011145923677 ], [ 144.964073703424901, -37.564897735928909 ], [ 144.964147183426064, -37.564769495933113 ], [ 144.964192873430846, -37.564652225935504 ], [ 144.964237883440973, -37.564486795937555 ], [ 144.964265253449838, -37.564360905938642 ], [ 144.96431278346131, -37.56417864594075 ], [ 144.964361723470063, -37.564019335943101 ], [ 144.964401333484687, -37.563820725944566 ], [ 144.964410313506193, -37.563607145943863 ], [ 144.96442472352166, -37.563440645943793 ], [ 144.964450273529394, -37.563328415944845 ], [ 144.964506083533365, -37.563202415947863 ], [ 144.964597513529554, -37.563091715953433 ], [ 144.964633173532235, -37.563010255955362 ], [ 144.964687523534423, -37.562903345958404 ], [ 144.964718113543597, -37.562769165959658 ], [ 144.964707343555887, -37.562672595958318 ], [ 144.964677083570194, -37.562587995955724 ], [ 144.964602223593886, -37.562488165949993 ], [ 144.964494913623298, -37.562386385942013 ], [ 144.964409613652009, -37.562256065935372 ], [ 144.964368553676309, -37.562096315931569 ], [ 144.964376143688924, -37.561967175931287 ], [ 144.964404543697327, -37.561844125932467 ], [ 144.964434103700427, -37.561768255934012 ], [ 144.964481633702292, -37.561675295936666 ], [ 144.964532363701068, -37.5616055559397 ], [ 144.964583863702074, -37.561514105942656 ], [ 144.964633903703771, -37.561418885945479 ], [ 144.964678873702724, -37.561356245948154 ], [ 144.96476275369676, -37.561277955953408 ], [ 144.964858163689598, -37.561192165959397 ], [ 144.965038873674871, -37.561040615970803 ], [ 144.965186843663162, -37.560913175980112 ], [ 144.965272873659501, -37.560809775985348 ], [ 144.965353903654659, -37.560725705990365 ], [ 144.965426943652744, -37.560627255994746 ], [ 144.965518043648956, -37.560516736000274 ], [ 144.965568453655322, -37.560377226002856 ], [ 144.965542173676369, -37.560224326000103 ], [ 144.965473403703442, -37.560082835994514 ], [ 144.965391353733224, -37.559937485987994 ], [ 144.965222143789362, -37.559686915974879 ], [ 144.965151553811097, -37.559597825969497 ], [ 144.964991023859483, -37.559405215957312 ], [ 144.964888053890093, -37.559285525949541 ], [ 144.964740413923579, -37.559210725938968 ], [ 144.9646000339566, -37.559128125928872 ], [ 144.964525503979928, -37.559030645923166 ], [ 144.964466114008587, -37.558859915918042 ], [ 144.964420384039613, -37.558644815913567 ], [ 144.964310594084623, -37.558402445904555 ], [ 144.964224924109089, -37.558312445898139 ], [ 144.964080204146086, -37.558200215887553 ], [ 144.963979394177358, -37.558070795879864 ], [ 144.963970774197776, -37.557895305878183 ], [ 144.963979754219594, -37.55767875587744 ], [ 144.963970414249047, -37.557420465875182 ], [ 144.963953474262439, -37.557323435873421 ], [ 144.968273983486711, -37.557626836170627 ], [ 144.968505973444962, -37.5576438361866 ], [ 144.972375992747402, -37.557940836453035 ], [ 144.972575462711319, -37.557957246466778 ], [ 144.972585502712235, -37.557932826467308 ], [ 144.979426701474523, -37.558500176938736 ], [ 144.982312970930508, -37.558941827138959 ], [ 144.985981950238454, -37.559507837393539 ], [ 144.997786958013222, -37.561314848212952 ], [ 145.00664094642147, -37.561954838823453 ], [ 145.015653964801373, -37.562603839445217 ], [ 145.015182714623535, -37.564996549427846 ], [ 145.02133548349309, -37.565664969853884 ], [ 145.032442321449793, -37.566895840623509 ], [ 145.032314131758028, -37.564253440598222 ], [ 145.032436111740537, -37.564221030606383 ], [ 145.033742961501986, -37.564349110696867 ], [ 145.044021099623052, -37.565379131408896 ], [ 145.044039099628719, -37.565298011409631 ], [ 145.04672841914001, -37.565540731595824 ], [ 145.047973608913594, -37.565654431682084 ], [ 145.052135708157039, -37.56603133197035 ], [ 145.052108988143914, -37.56619463196953 ], [ 145.060998856490755, -37.567343442587635 ], [ 145.060037956058437, -37.572850842555965 ], [ 145.058684935441249, -37.580683852511854 ], [ 145.058502945356878, -37.581749842505985 ], [ 145.061420934821427, -37.582057842708487 ], [ 145.061321444830014, -37.582136622702137 ], [ 145.059230533894379, -37.594070582632867 ], [ 145.057637604290733, -37.592944892516364 ], [ 145.055055334805019, -37.592301272334879 ], [ 145.054537004919581, -37.592067662297808 ], [ 145.053668665092118, -37.591855182236813 ], [ 145.052932385141531, -37.592567342190669 ], [ 145.052449564993594, -37.594696472170781 ], [ 145.053046564825109, -37.595302162215553 ], [ 145.053494234700963, -37.595736002249033 ], [ 145.053435544665717, -37.596153832247623 ], [ 145.052448394849392, -37.596027492178997 ], [ 145.051421395045423, -37.595849962107323 ], [ 145.049591035404291, -37.595446241979069 ], [ 145.048584365593371, -37.595301031909017 ], [ 145.047032275880468, -37.595116881801253 ], [ 145.044726274675497, -37.609882451734947 ], [ 145.044879794636756, -37.60999575174619 ], [ 145.04466192453603, -37.61126984173918 ], [ 145.04444493443583, -37.61253783173219 ], [ 145.04409882427575, -37.61456222172103 ], [ 145.04383160415216, -37.616125241712417 ], [ 145.04379752413638, -37.616324581711325 ], [ 145.043246883881721, -37.619545271693596 ], [ 145.043205303862464, -37.619788501692256 ], [ 145.042896953719861, -37.62159200168233 ], [ 145.042878723711425, -37.621698671681735 ], [ 145.042771243661747, -37.622327281678274 ], [ 145.042687913623155, -37.622814711675595 ], [ 145.042668383614142, -37.62292893167497 ], [ 145.042428163503018, -37.624333971667212 ], [ 145.042398923498951, -37.62441785166574 ], [ 145.042321943513087, -37.624409841660402 ], [ 145.039303074067277, -37.624097081451168 ], [ 145.037641434372347, -37.623924941336035 ], [ 145.03548684476786, -37.623701731186742 ], [ 145.035257474809981, -37.623677961170841 ], [ 145.032494425317168, -37.62339171097944 ], [ 145.029570925853847, -37.62308884077693 ], [ 145.028790705996641, -37.623012370722918 ], [ 145.024709936743534, -37.622609840440454 ], [ 145.021731937288735, -37.62231484023436 ], [ 145.020830937453638, -37.622225840172014 ], [ 145.020004937604796, -37.622144840114871 ], [ 145.019554017687369, -37.622099960083673 ], [ 145.019100947770227, -37.622055840052326 ], [ 145.018486507882699, -37.621995180009819 ], [ 145.016068708325292, -37.621756379842552 ], [ 145.015082948505722, -37.621658829774361 ], [ 145.014574178599389, -37.621603569739143 ], [ 145.011847879101367, -37.621307279550415 ], [ 145.010855189284058, -37.62119998948171 ], [ 145.010475299353715, -37.621161199455429 ], [ 145.009075889610386, -37.621018079358635 ], [ 145.006970939996393, -37.620803839213039 ], [ 145.005214160318104, -37.620628879091591 ], [ 145.003565960620051, -37.620463838977649 ], [ 145.001358041026521, -37.620224078824904 ], [ 144.9998643913016, -37.620061008721592 ], [ 144.999605461349319, -37.620032148703658 ], [ 144.998063111633286, -37.61986464859698 ], [ 144.997843821673797, -37.619839648581802 ], [ 144.996993191830455, -37.619746708522982 ], [ 144.996124961990347, -37.619651838462921 ], [ 144.995839572042428, -37.619625348443229 ], [ 144.994435632299087, -37.619489278346236 ], [ 144.993785132418026, -37.619426198301305 ], [ 144.992021782740437, -37.619255208179524 ] ] ] ] } }
]
}
